*******************************************************************************
Ephemeris / WWW_USER Mon Mar 24 08:38:11 2025 Pasadena, USA      / Horizons    
*******************************************************************************
Target body name: (2019 AU)                       {source: JPL#11}
Center body name: Earth (399)                     {source: DE441}
Center-site name: Mauna Kea
*******************************************************************************
Start time      : A.D. 2018-Oct-22 04:03:00.0000 UT      
Stop  time      : A.D. 2018-Oct-22 16:09:00.0000 UT      
Step-size       : 1 minutes
*******************************************************************************
Target pole/equ : undefined
Target radii    : undefined                                                    
Center geodetic : 204.5278, 19.8260847, 4.21024   {E-lon(deg),Lat(deg),Alt(km)}
Center cylindric: 204.5278, 6006.35451, 2151.0229 {E-lon(deg),Dxy(km),Dz(km)}
Center pole/equ : ITRF93                          {East-longitude positive}
Center radii    : 6378.137, 6378.137, 6356.752 km {Equator_a, b, pole_c}       
Target primary  : Sun
Vis. interferer : MOON (R_eq= 1737.400) km        {source: DE441}
Rel. light bend : Sun                             {source: DE441}
Rel. lght bnd GM: 1.3271E+11 km^3/s^2                                          
Small-body perts: Yes                             {source: SB441-N16}
Atmos refraction: NO (AIRLESS)
RA format       : HMS
Time format     : CAL 
Calendar mode   : Mixed Julian/Gregorian
RTS-only print  : NO       
EOP file        : eop.250321.p250617                                           
EOP coverage    : DATA-BASED 1962-JAN-20 TO 2025-MAR-21. PREDICTS-> 2025-JUN-16
Units conversion: 1 au= 149597870.700 km, c= 299792.458 km/s, 1 day= 86400.0 s 
Table cut-offs 1: Elevation (-90.0deg=NO ),Airmass (>38.000=NO), Daylight (YES)
Table cut-offs 2: Solar elongation (  0.0,180.0=NO ),Local Hour Angle( 0.0=NO )
Table cut-offs 3: RA/DEC angular rate (     0.0=NO )                           
*******************************************************************************
Initial IAU76/J2000 heliocentric ecliptic osculating elements (au, days, deg.):
  EPOCH=  2458490.5 ! 2019-Jan-07.00 (TDB)         Residual RMS= .17143        
   EC= .1028488096127525   QR= .9927870416208908   TP= 2458466.0562707144      
   OM= 109.6543146265929   W=  330.7265060973358   IN= 5.020660041219873       
  Equivalent ICRF heliocentric cartesian coordinates (au, au/d):
   X=-2.730606646751524E-01  Y= 8.866895536052930E-01  Z= 3.780071563225811E-01
  VX=-1.742089442644723E-02 VY=-4.449382429672076E-03 VZ=-2.237797348809624E-04
Asteroid physical parameters (km, seconds, rotational period in hours):        
   GM= n.a.                RAD= n.a.               ROTPER= n.a.                
   H= 26.7                 G= .150                 B-V= n.a.                   
                           ALBEDO= n.a.            STYP= n.a.                  
*******************************************************************************
 Date__(UT)__HR:MN     R.A._________(ICRF)_________DEC
******************************************************
$$SOE
 2018-Oct-22 14:18  m  02 16 01.756204 -60 38 17.63917
 2018-Oct-22 14:19  m  02 16 01.763781 -60 38 17.96643
 2018-Oct-22 14:20  m  02 16 01.771542 -60 38 18.29287
 2018-Oct-22 14:21  m  02 16 01.779488 -60 38 18.61849
 2018-Oct-22 14:22  m  02 16 01.787620 -60 38 18.94329
 2018-Oct-22 14:23  m  02 16 01.795938 -60 38 19.26729
 2018-Oct-22 14:24  m  02 16 01.804443 -60 38 19.59049
 2018-Oct-22 14:25  s  02 16 01.813135 -60 38 19.91288
 2018-Oct-22 14:26  m  02 16 01.822014 -60 38 20.23449
 2018-Oct-22 14:27  m  02 16 01.831082 -60 38 20.55531
 2018-Oct-22 14:28  m  02 16 01.840338 -60 38 20.87534
 2018-Oct-22 14:29  m  02 16 01.849784 -60 38 21.19460
 2018-Oct-22 14:30  m  02 16 01.859419 -60 38 21.51309
 2018-Oct-22 14:31  m  02 16 01.869245 -60 38 21.83081
 2018-Oct-22 14:32  m  02 16 01.879261 -60 38 22.14777
 2018-Oct-22 14:33  m  02 16 01.889469 -60 38 22.46398
 2018-Oct-22 14:34  m  02 16 01.899868 -60 38 22.77943
 2018-Oct-22 14:35  m  02 16 01.910460 -60 38 23.09415
 2018-Oct-22 14:36  m  02 16 01.921245 -60 38 23.40812
 2018-Oct-22 14:37  m  02 16 01.932223 -60 38 23.72136
 2018-Oct-22 14:38  m  02 16 01.943394 -60 38 24.03387
 2018-Oct-22 14:39  m  02 16 01.954760 -60 38 24.34566
 2018-Oct-22 14:40  m  02 16 01.966320 -60 38 24.65673
 2018-Oct-22 14:41  m  02 16 01.978076 -60 38 24.96708
 2018-Oct-22 14:42  m  02 16 01.990027 -60 38 25.27673
 2018-Oct-22 14:43  m  02 16 02.002175 -60 38 25.58568
 2018-Oct-22 14:44  m  02 16 02.014519 -60 38 25.89394
 2018-Oct-22 14:45     02 16 02.027060 -60 38 26.20150
 2018-Oct-22 14:46     02 16 02.039799 -60 38 26.50838
 2018-Oct-22 14:47     02 16 02.052735 -60 38 26.81459
 2018-Oct-22 14:48     02 16 02.065870 -60 38 27.12011
 2018-Oct-22 14:49     02 16 02.079204 -60 38 27.42497
 2018-Oct-22 14:50     02 16 02.092737 -60 38 27.72917
 2018-Oct-22 14:51     02 16 02.106469 -60 38 28.03271
 2018-Oct-22 14:52     02 16 02.120402 -60 38 28.33560
 2018-Oct-22 14:53     02 16 02.134536 -60 38 28.63784
 2018-Oct-22 14:54     02 16 02.148870 -60 38 28.93945
 2018-Oct-22 14:55     02 16 02.163406 -60 38 29.24042
 2018-Oct-22 14:56     02 16 02.178144 -60 38 29.54076
 2018-Oct-22 14:57     02 16 02.193083 -60 38 29.84048
 2018-Oct-22 14:58     02 16 02.208226 -60 38 30.13958
 2018-Oct-22 14:59     02 16 02.223572 -60 38 30.43807
 2018-Oct-22 15:00     02 16 02.239121 -60 38 30.73595
 2018-Oct-22 15:01     02 16 02.254874 -60 38 31.03324
 2018-Oct-22 15:02     02 16 02.270831 -60 38 31.32992
 2018-Oct-22 15:03     02 16 02.286993 -60 38 31.62602
 2018-Oct-22 15:04     02 16 02.303360 -60 38 31.92154
 2018-Oct-22 15:05     02 16 02.319932 -60 38 32.21648
 2018-Oct-22 15:06 A   02 16 02.336710 -60 38 32.51085
 2018-Oct-22 15:07 A   02 16 02.353694 -60 38 32.80465
 2018-Oct-22 15:08 A   02 16 02.370885 -60 38 33.09789
 2018-Oct-22 15:09 A   02 16 02.388283 -60 38 33.39058
 2018-Oct-22 15:10 A   02 16 02.405887 -60 38 33.68272
 2018-Oct-22 15:11 A   02 16 02.423700 -60 38 33.97432
 2018-Oct-22 15:12 A   02 16 02.441720 -60 38 34.26537
 2018-Oct-22 15:13 A   02 16 02.459949 -60 38 34.55590
 2018-Oct-22 15:14 A   02 16 02.478387 -60 38 34.84591
 2018-Oct-22 15:15 A   02 16 02.497033 -60 38 35.13539
 2018-Oct-22 15:16 A   02 16 02.515889 -60 38 35.42436
 2018-Oct-22 15:17 A   02 16 02.534955 -60 38 35.71283
 2018-Oct-22 15:18 A   02 16 02.554230 -60 38 36.00079
 2018-Oct-22 15:19 A   02 16 02.573716 -60 38 36.28825
 2018-Oct-22 15:20 A   02 16 02.593413 -60 38 36.57523
 2018-Oct-22 15:21 A   02 16 02.613320 -60 38 36.86172
 2018-Oct-22 15:22 A   02 16 02.633439 -60 38 37.14773
 2018-Oct-22 15:23 A   02 16 02.653769 -60 38 37.43328
 2018-Oct-22 15:24 A   02 16 02.674312 -60 38 37.71835
 2018-Oct-22 15:25 A   02 16 02.695066 -60 38 38.00296
 2018-Oct-22 15:26 A   02 16 02.716033 -60 38 38.28713
 2018-Oct-22 15:27 A   02 16 02.737213 -60 38 38.57084
 2018-Oct-22 15:28 A   02 16 02.758606 -60 38 38.85411
 2018-Oct-22 15:29 A   02 16 02.780212 -60 38 39.13694
 2018-Oct-22 15:30 A   02 16 02.802032 -60 38 39.41934
 2018-Oct-22 15:31 N   02 16 02.824066 -60 38 39.70132
 2018-Oct-22 15:32 N   02 16 02.846314 -60 38 39.98288
 2018-Oct-22 15:33 N   02 16 02.868777 -60 38 40.26402
 2018-Oct-22 15:34 N   02 16 02.891454 -60 38 40.54476
 2018-Oct-22 15:35 N   02 16 02.914347 -60 38 40.82510
 2018-Oct-22 15:36 N   02 16 02.937454 -60 38 41.10505
 2018-Oct-22 15:37 N   02 16 02.960778 -60 38 41.38460
 2018-Oct-22 15:38 N   02 16 02.984317 -60 38 41.66378
 2018-Oct-22 15:39 N   02 16 03.008071 -60 38 41.94257
 2018-Oct-22 15:40 N   02 16 03.032043 -60 38 42.22100
 2018-Oct-22 15:41 N   02 16 03.056230 -60 38 42.49906
 2018-Oct-22 15:42 N   02 16 03.080635 -60 38 42.77677
 2018-Oct-22 15:43 N   02 16 03.105256 -60 38 43.05412
 2018-Oct-22 15:44 N   02 16 03.130094 -60 38 43.33112
 2018-Oct-22 15:45 N   02 16 03.155150 -60 38 43.60779
 2018-Oct-22 15:46 N   02 16 03.180424 -60 38 43.88412
 2018-Oct-22 15:47 N   02 16 03.205915 -60 38 44.16013
 2018-Oct-22 15:48 N   02 16 03.231624 -60 38 44.43581
 2018-Oct-22 15:49 N   02 16 03.257552 -60 38 44.71117
 2018-Oct-22 15:50 N   02 16 03.283698 -60 38 44.98623
 2018-Oct-22 15:51 N   02 16 03.310063 -60 38 45.26098
 2018-Oct-22 15:52 N   02 16 03.336646 -60 38 45.53544
 2018-Oct-22 15:53 N   02 16 03.363448 -60 38 45.80960
 2018-Oct-22 15:54 N   02 16 03.390470 -60 38 46.08348
 2018-Oct-22 15:55 N   02 16 03.417711 -60 38 46.35709
 2018-Oct-22 15:56 N   02 16 03.445172 -60 38 46.63041
 2018-Oct-22 15:57 C   02 16 03.472852 -60 38 46.90347
 2018-Oct-22 15:58 C   02 16 03.500752 -60 38 47.17627
 2018-Oct-22 15:59 C   02 16 03.528872 -60 38 47.44882
 2018-Oct-22 16:00 C   02 16 03.557212 -60 38 47.72112
 2018-Oct-22 16:01 C   02 16 03.585773 -60 38 47.99318
 2018-Oct-22 16:02 C   02 16 03.614554 -60 38 48.26500
 2018-Oct-22 16:03 C   02 16 03.643556 -60 38 48.53659
 2018-Oct-22 16:04 C   02 16 03.672778 -60 38 48.80795
 2018-Oct-22 16:05 C   02 16 03.702221 -60 38 49.07910
 2018-Oct-22 16:06 C   02 16 03.731886 -60 38 49.35004
 2018-Oct-22 16:07 C   02 16 03.761771 -60 38 49.62077
 2018-Oct-22 16:08 C   02 16 03.791878 -60 38 49.89131
 2018-Oct-22 16:09 C   02 16 03.822207 -60 38 50.16165
